NORAD_CAT_ID,OBJECT_NAME,OBJECT_TYPE,EPOCH,MEAN_MOTION,ECCENTRICITY,INCLINATION,RA_OF_ASC_NODE,ARG_OF_PERICENTER,MEAN_ANOMALY,BSTAR,MEAN_MOTION_DOT,MEAN_MOTION_DDOT,TLE_LINE0,TLE_LINE1,TLE_LINE2,SEMIMAJOR_AXIS,PERIOD,APOGEE,PERIGEE,DECAYED
55646.0,STARLINK-5104,PAYLOAD,2024-07-01 12:47:11,14.98326483,0.0003035,69.9998,298.1409,268.9023,91.1788,0.00010406,1.149e-05,0.0,0 STARLINK-5104,1 55646U 23021U   24183.53277128  .00001149  00000-0  10406-3 0  9996,2 55646  69.9998 298.1409 0003035 268.9023  91.1788 14.98326483 76197,6950.204,96.107,574.178,569.959,0.0
55646.0,STARLINK-5104,PAYLOAD,2024-07-01 14:23:19,14.98330287,0.0003085,70.0001,297.9742,269.3477,90.7329,0.00010007,1.101e-05,0.0,0 STARLINK-5104,1 55646U 23021U   24183.59952907  .00001101  00000-0  10007-3 0  9992,2 55646  70.0001 297.9742 0003085 269.3477  90.7329 14.98330287 76503,6950.192,96.107,574.201,569.913,0.0
55646.0,STARLINK-5104,PAYLOAD,2024-07-01 17:35:35,14.98334098,0.0003065,70.0,297.6373,269.9978,90.083,0.00010515,1.162e-05,0.0,0 STARLINK-5104,1 55646U 23021U   24183.73304637  .00001162  00000-0  10515-3 0  9990,2 55646  70.0000 297.6373 0003065 269.9978  90.0830 14.98334098 76222,6950.18,96.107,574.175,569.915,0.0
55646.0,STARLINK-5104,PAYLOAD,2024-07-02 14:25:20,14.98328654,0.0002962,70.0001,295.4481,270.4488,89.6332,7.8732e-05,8.47e-06,0.0,0 STARLINK-5104,1 55646U 23021U   24184.60093189  .00000847  00000-0  78732-4 0  9999,2 55646  70.0001 295.4481 0002962 270.4488  89.6332 14.98328654 76656,6950.197,96.107,574.121,570.003,0.0
55646.0,STARLINK-5104,PAYLOAD,2024-07-02 17:37:36,14.98329605,0.0002947,70.0002,295.1115,270.3854,89.6967,9.2933e-05,1.016e-05,0.0,0 STARLINK-5104,1 55646U 23021U   24184.73445100  .00001016  00000-0  92933-4 0  9995,2 55646  70.0002 295.1115 0002947 270.3854  89.6967 14.98329605 76377,6950.194,96.107,574.107,570.011,0.0
55646.0,STARLINK-5104,PAYLOAD,2024-07-03 17:39:37,14.98333067,0.0002898,70.0003,292.5875,269.2581,90.8246,2.3399e-05,1.86e-06,0.0,0 STARLINK-5104,1 55646U 23021U   24185.73585038  .00000186  00000-0  23399-4 0  9998,2 55646  70.0003 292.5875 0002898 269.2581  90.8246 14.98333067 76529,6950.183,96.107,574.063,570.034,0.0
55646.0,STARLINK-5104,PAYLOAD,2024-07-04 14:29:22,14.98328773,0.0002804,70.0004,290.3991,267.2854,92.7984,6.1553e-05,6.42e-06,0.0,0 STARLINK-5104,1 55646U 23021U   24186.60373170  .00000642  00000-0  61553-4 0  9998,2 55646  70.0004 290.3991 0002804 267.2854  92.7984 14.98328773 76958,6950.197,96.107,574.011,570.113,0.0
55646.0,STARLINK-5104,PAYLOAD,2024-07-04 16:05:30,14.98329968,0.000278,70.0005,290.2308,267.6391,92.445,7.5284e-05,8.05e-06,0.0,0 STARLINK-5104,1 55646U 23021U   24186.67049062  .00000805  00000-0  75284-4 0  9992,2 55646  70.0005 290.2308 0002780 267.6391  92.4450 14.98329968 76966,6950.193,96.107,573.99,570.126,0.0
55646.0,STARLINK-5104,PAYLOAD,2024-07-05 00:06:10,14.98340879,0.0002907,70.0004,289.3893,269.8757,90.2069,-0.0001337,-1.688e-05,0.0,0 STARLINK-5104,1 55646U 23021U   24187.00428801 -.00001688  00000-0 -13370-3 0  9991,2 55646  70.0004 289.3893 0002907 269.8757  90.2069 14.98340879 76713,6950.159,96.106,574.045,570.004,0.0
55646.0,STARLINK-5104,PAYLOAD,2024-07-05 12:55:15,14.98329971,0.0003095,70.0003,288.043,268.7741,91.3064,3.8901e-05,3.71e-06,0.0,0 STARLINK-5104,1 55646U 23021U   24187.53837095  .00000371  00000-0  38901-4 0  9992,2 55646  70.0003 288.0430 0003095 268.7741  91.3064 14.98329971 76790,6950.193,96.107,574.209,569.907,0.0
55646.0,STARLINK-5104,PAYLOAD,2024-07-05 14:31:23,14.98330489,0.0002891,70.0003,287.8746,269.1664,90.9164,3.1971e-05,2.89e-06,0.0,0 STARLINK-5104,1 55646U 23021U   24187.60513100  .00000289  00000-0  31971-4 0  9996,2 55646  70.0003 287.8746 0002891 269.1664  90.9164 14.98330489 77107,6950.191,96.107,574.066,570.047,0.0
55646.0,STARLINK-5104,PAYLOAD,2024-07-05 16:07:31,14.98330901,0.0002885,70.0003,287.7063,269.1061,90.9767,4.0331e-05,3.88e-06,0.0,0 STARLINK-5104,1 55646U 23021U   24187.67189049  .00000388  00000-0  40331-4 0  9994,2 55646  70.0003 287.7063 0002885 269.1061  90.9767 14.98330901 77111,6950.19,96.107,574.06,570.05,0.0
55646.0,STARLINK-5104,PAYLOAD,2024-07-06 12:57:16,14.98326175,0.0003039,70.0002,285.5179,269.766,90.3151,4.1461e-05,4.02e-06,0.0,0 STARLINK-5104,1 55646U 23021U   24188.53977354  .00000402  00000-0  41461-4 0  9996,2 55646  70.0002 285.5179 0003039 269.7660  90.3151 14.98326175 76946,6950.205,96.107,574.182,569.958,0.0
55646.0,STARLINK-5104,PAYLOAD,2024-07-06 14:33:24,14.98327955,0.0003028,70.0001,285.3494,269.5494,90.5318,-3.0595e-05,-4.58e-06,0.0,0 STARLINK-5104,1 55646U 23021U   24188.60653447 -.00000458  00000-0 -30595-4 0  9997,2 55646  70.0001 285.3494 0003028 269.5494  90.5318 14.98327955 77253,6950.199,96.107,574.169,569.96,0.0
55646.0,STARLINK-5104,PAYLOAD,2024-07-06 16:09:32,14.98327751,0.0002992,70.0001,285.181,269.3552,90.7264,-3.095e-05,-4.62e-06,0.0,0 STARLINK-5104,1 55646U 23021U   24188.67329470 -.00000462  00000-0 -30950-4 0  9990,2 55646  70.0001 285.1810 0002992 269.3552  90.7264 14.98327751 77262,6950.2,96.107,574.144,569.985,0.0
55646.0,STARLINK-5104,PAYLOAD,2024-07-07 12:59:17,14.98330389,0.0003134,69.9995,282.9913,267.9876,92.0924,1.1354e-05,4.2e-07,0.0,0 STARLINK-5104,1 55646U 23021U   24189.54117196  .00000042  00000-0  11354-4 0  9996,2 55646  69.9995 282.9913 0003134 267.9876  92.0924 14.98330389 77092,6950.192,96.107,574.235,569.878,0.0
55646.0,STARLINK-5104,PAYLOAD,2024-07-08 13:01:17,14.98332897,0.0003074,69.9998,280.4679,268.0107,92.07,6.2467e-05,6.52e-06,0.0,0 STARLINK-5104,1 55646U 23021U   24190.54256864  .00000652  00000-0  62467-4 0  9992,2 55646  69.9998 280.4679 0003074 268.0107  92.0700 14.98332897 77244,6950.184,96.107,574.185,569.912,0.0
55646.0,STARLINK-5104,PAYLOAD,2024-07-08 14:37:25,14.98334627,0.000316,69.9996,280.299,269.3786,90.7011,6.7253e-05,7.1e-06,0.0,0 STARLINK-5104,1 55646U 23021U   24190.60932721  .00000710  00000-0  67253-4 0  9995,2 55646  69.9996 280.2990 0003160 269.3786  90.7011 14.98334627 77556,6950.179,96.107,574.24,569.847,0.0
55646.0,STARLINK-5104,PAYLOAD,2024-07-08 16:13:33,14.98333955,0.0003062,69.9998,280.1312,267.9566,92.1243,7.2148e-05,7.68e-06,0.0,0 STARLINK-5104,1 55646U 23021U   24190.67608741  .00000768  00000-0  72148-4 0  9996,2 55646  69.9998 280.1312 0003062 267.9566  92.1243 14.98333955 77563,6950.181,96.107,574.174,569.918,0.0
55646.0,STARLINK-5104,PAYLOAD,2024-07-09 13:03:18,14.98331504,0.0002942,70.0001,277.943,269.1848,90.8974,2.5979e-05,2.17e-06,0.0,0 STARLINK-5104,1 55646U 23021U   24191.54396872  .00000217  00000-0  25979-4 0  9991,2 55646  70.0001 277.9430 0002942 269.1848  90.8974 14.98331504 77394,6950.188,96.107,574.098,570.008,0.0
55646.0,STARLINK-5104,PAYLOAD,2024-07-09 14:39:26,14.9833192,0.0002939,70.0001,277.7747,269.188,90.8942,2.9813e-05,2.63e-06,0.0,0 STARLINK-5104,1 55646U 23021U   24191.61072824  .00000263  00000-0  29813-4 0  9999,2 55646  70.0001 277.7747 0002939 269.1880  90.8942 14.98331920 77707,6950.187,96.107,574.095,570.009,0.0
55646.0,STARLINK-5104,PAYLOAD,2024-07-09 16:15:34,14.98332029,0.0002943,70.0,277.6063,269.4448,90.6373,2.9717e-05,2.62e-06,0.0,0 STARLINK-5104,1 55646U 23021U   24191.67748807  .00000262  00000-0  29717-4 0  9998,2 55646  70.0000 277.6063 0002943 269.4448  90.6373 14.98332029 77712,6950.187,96.107,574.097,570.006,0.0
55646.0,STARLINK-5104,PAYLOAD,2024-07-10 11:29:12,14.98327707,0.0002935,70.0,275.5865,269.9745,90.1078,-4.6778e-05,-6.51e-06,0.0,0 STARLINK-5104,1 55646U 23021U   24192.47861241 -.00000651  00000-0 -46778-4 0  9995,2 55646  70.0000 275.5865 0002935 269.9745  90.1078 14.98327707 77832,6950.2,96.107,574.105,570.025,0.0
55646.0,STARLINK-5104,PAYLOAD,2024-07-11 13:07:22,14.98310967,0.0002907,69.9999,272.8929,269.3093,90.7733,-0.00020458,-2.532e-05,0.0,0 STARLINK-5104,1 55646U 23021U   24193.54678765 -.00002532  00000-0 -20458-3 0  9997,2 55646  69.9999 272.8929 0002907 269.3093  90.7733 14.98310967 77997,6950.252,96.108,574.137,570.096,0.0
55646.0,STARLINK-5104,PAYLOAD,2024-07-11 14:43:30,14.98313652,0.0003168,69.9993,272.7235,280.3094,79.7708,-0.00016536,-2.065e-05,0.0,0 STARLINK-5104,1 55646U 23021U   24193.61354667 -.00002065  00000-0 -16536-3 0  9990,2 55646  69.9993 272.7235 0003168 280.3094  79.7708 14.98313652 77706,6950.243,96.108,574.31,569.907,0.0
55646.0,STARLINK-5104,PAYLOAD,2024-07-12 13:09:23,14.98319528,0.0003253,69.9989,270.3676,273.2099,86.8688,-1.8998e-05,-3.2e-06,0.0,0 STARLINK-5104,1 55646U 23021U   24194.54818631 -.00000320  00000-0 -18998-4 0  9996,2 55646  69.9989 270.3676 0003253 273.2099  86.8688 14.98319528 77844,6950.225,96.108,574.351,569.829,0.0
55646.0,STARLINK-5104,PAYLOAD,2024-07-12 14:45:31,14.98322013,0.0003278,69.999,270.1998,275.0654,85.013,-1.322e-05,-2.51e-06,0.0,0 STARLINK-5104,1 55646U 23021U   24194.61494508 -.00000251  00000-0 -13220-4 0  9993,2 55646  69.9990 270.1998 0003278 275.0654  85.0130 14.98322013 78156,6950.218,96.108,574.361,569.804,0.0
55646.0,STARLINK-5104,PAYLOAD,2024-07-13 13:11:23,14.98324318,0.0003259,69.9986,267.8427,273.1943,86.8843,0.00024315,2.809e-05,0.0,0 STARLINK-5104,1 55646U 23021U   24195.54958034  .00002809  00000-0  24315-3 0  9990,2 55646  69.9986 267.8427 0003259 273.1943  86.8843 14.98324318 77991,6950.21,96.107,574.341,569.81,0.0
55646.0,STARLINK-5104,PAYLOAD,2024-07-13 14:47:31,14.9832143,0.000328,69.9986,267.6743,274.1916,85.8868,0.00031098,3.619e-05,0.0,0 STARLINK-5104,1 55646U 23021U   24195.61634102  .00003619  00000-0  31098-3 0  9991,2 55646  69.9986 267.6743 0003280 274.1916  85.8868 14.98321430 78309,6950.219,96.108,574.364,569.805,0.0
55646.0,STARLINK-5104,PAYLOAD,2024-07-14 13:13:23,14.98343099,0.0003302,69.9985,265.3176,274.6928,85.3854,0.00023171,2.674e-05,0.0,0 STARLINK-5104,1 55646U 23021U   24196.55096759  .00002674  00000-0  23171-3 0  9998,2 55646  69.9985 265.3176 0003302 274.6928  85.3854 14.98343099 78143,6950.152,96.106,574.312,569.722,0.0
